[{"CCSDS_OMM_VERS":"2.0","COMMENT":"GENERATED VIA SPACE-TRACK.ORG API","CREATION_DATE":"2021-04-30T04:45:36","ORIGINATOR":"18 SPCS","OBJECT_NAME":"ONEWEB-0220","OBJECT_ID":"2021-031Y","CENTER_NAME":"EARTH","REF_FRAME":"TEME","TIME_SYSTEM":"UTC","MEAN_ELEMENT_THEORY":"SGP4","EPOCH":"2021-04-29T22:00:00.999936","MEAN_MOTION":"15.42197998","ECCENTRICITY":"0.00084560","INCLINATION":"87.3983","RA_OF_ASC_NODE":"311.7553","ARG_OF_PERICENTER":"242.7409","MEAN_ANOMALY":"336.0809","EPHEMERIS_TYPE":"0","CLASSIFICATION_TYPE":"U","NORAD_CAT_ID":"48232","ELEMENT_SET_NO":"999","REV_AT_EPOCH":"179","BSTAR":"0.00160450000000","MEAN_MOTION_DOT":"0.00069395","MEAN_MOTION_DDOT":"0.0000000000000","SEMIMAJOR_AXIS":"6817.761","PERIOD":"93.373","APOAPSIS":"445.391","PERIAPSIS":"433.861","OBJECT_TYPE":"PAYLOAD","RCS_SIZE":null,"COUNTRY_CODE":"UK","LAUNCH_DATE":"2021-04-25","SITE":"VOSTO","DECAY_DATE":null,"FILE":"3027478","GP_ID":"176358132","TLE_LINE0":"0 ONEWEB-0220","TLE_LINE1":"1 48232U 21031Y   21119.91667824  .00069395  00000-0  16045-2 0  9993","TLE_LINE2":"2 48232  87.3983 311.7553 0008456 242.7409 336.0809 15.42197998  1796"},{"CCSDS_OMM_VERS":"2.0","COMMENT":"GENERATED VIA SPACE-TRACK.ORG API","CREATION_DATE":"2021-04-30T13:36:11","ORIGINATOR":"18 SPCS","OBJECT_NAME":"ONEWEB-0220","OBJECT_ID":"2021-031Y","CENTER_NAME":"EARTH","REF_FRAME":"TEME","TIME_SYSTEM":"UTC","MEAN_ELEMENT_THEORY":"SGP4","EPOCH":"2021-04-30T12:00:00.999648","MEAN_MOTION":"15.42227056","ECCENTRICITY":"0.00085450","INCLINATION":"87.3986","RA_OF_ASC_NODE":"311.5483","ARG_OF_PERICENTER":"239.1309","MEAN_ANOMALY":"336.0922","EPHEMERIS_TYPE":"0","CLASSIFICATION_TYPE":"U","NORAD_CAT_ID":"48232","ELEMENT_SET_NO":"999","REV_AT_EPOCH":"69","BSTAR":"0.00088283000000","MEAN_MOTION_DOT":"0.00038090","MEAN_MOTION_DDOT":"0.0000000000000","SEMIMAJOR_AXIS":"6817.675","PERIOD":"93.371","APOAPSIS":"445.366","PERIAPSIS":"433.714","OBJECT_TYPE":"PAYLOAD","RCS_SIZE":null,"COUNTRY_CODE":"UK","LAUNCH_DATE":"2021-04-25","SITE":"VOSTO","DECAY_DATE":null,"FILE":"3027664","GP_ID":"176362300","TLE_LINE0":"0 ONEWEB-0220","TLE_LINE1":"1 48232U 21031Y   21120.50001157  .00038090  00000-0  88283-3 0  9993","TLE_LINE2":"2 48232  87.3986 311.5483 0008545 239.1309 336.0922 15.42227056   690"},{"CCSDS_OMM_VERS":"2.0","COMMENT":"GENERATED VIA SPACE-TRACK.ORG API","CREATION_DATE":"2021-04-30T18:30:10","ORIGINATOR":"18 SPCS","OBJECT_NAME":"ONEWEB-0220","OBJECT_ID":"2021-031Y","CENTER_NAME":"EARTH","REF_FRAME":"TEME","TIME_SYSTEM":"UTC","MEAN_ELEMENT_THEORY":"SGP4","EPOCH":"2021-04-30T14:00:01.000224","MEAN_MOTION":"15.42262195","ECCENTRICITY":"0.00085880","INCLINATION":"87.3987","RA_OF_ASC_NODE":"311.5180","ARG_OF_PERICENTER":"239.1513","MEAN_ANOMALY":"78.4078","EPHEMERIS_TYPE":"0","CLASSIFICATION_TYPE":"U","NORAD_CAT_ID":"48232","ELEMENT_SET_NO":"999","REV_AT_EPOCH":"189","BSTAR":"-0.00072974000000","MEAN_MOTION_DOT":"-0.00031159","MEAN_MOTION_DDOT":"0.0000000000000","SEMIMAJOR_AXIS":"6817.571","PERIOD":"93.369","APOAPSIS":"445.291","PERIAPSIS":"433.582","OBJECT_TYPE":"PAYLOAD","RCS_SIZE":null,"COUNTRY_CODE":"UK","LAUNCH_DATE":"2021-04-25","SITE":"VOSTO","DECAY_DATE":null,"FILE":"3028176","GP_ID":"176397062","TLE_LINE0":"0 ONEWEB-0220","TLE_LINE1":"1 48232U 21031Y   21120.58334491 -.00031159  00000-0 -72974-3 0  9992","TLE_LINE2":"2 48232  87.3987 311.5180 0008588 239.1513  78.4078 15.42262195  1894"},{"CCSDS_OMM_VERS":"2.0","COMMENT":"GENERATED VIA SPACE-TRACK.ORG API","CREATION_DATE":"2021-05-01T04:26:40","ORIGINATOR":"18 SPCS","OBJECT_NAME":"ONEWEB-0220","OBJECT_ID":"2021-031Y","CENTER_NAME":"EARTH","REF_FRAME":"TEME","TIME_SYSTEM":"UTC","MEAN_ELEMENT_THEORY":"SGP4","EPOCH":"2021-04-30T22:00:00.999936","MEAN_MOTION":"15.42210974","ECCENTRICITY":"0.00085160","INCLINATION":"87.3986","RA_OF_ASC_NODE":"311.3976","ARG_OF_PERICENTER":"237.9009","MEAN_ANOMALY":"129.0649","EPHEMERIS_TYPE":"0","CLASSIFICATION_TYPE":"U","NORAD_CAT_ID":"48232","ELEMENT_SET_NO":"999","REV_AT_EPOCH":"195","BSTAR":"0.00152000000000","MEAN_MOTION_DOT":"0.00065742","MEAN_MOTION_DDOT":"0.0000000000000","SEMIMAJOR_AXIS":"6817.722","PERIOD":"93.372","APOAPSIS":"445.393","PERIAPSIS":"433.781","OBJECT_TYPE":"PAYLOAD","RCS_SIZE":null,"COUNTRY_CODE":"UK","LAUNCH_DATE":"2021-04-25","SITE":"VOSTO","DECAY_DATE":null,"FILE":"3028318","GP_ID":"176422348","TLE_LINE0":"0 ONEWEB-0220","TLE_LINE1":"1 48232U 21031Y   21120.91667824  .00065742  00000-0  15200-2 0  9999","TLE_LINE2":"2 48232  87.3986 311.3976 0008516 237.9009 129.0649 15.42210974  1953"},{"CCSDS_OMM_VERS":"2.0","COMMENT":"GENERATED VIA SPACE-TRACK.ORG API","CREATION_DATE":"2021-05-01T06:36:11","ORIGINATOR":"18 SPCS","OBJECT_NAME":"ONEWEB-0220","OBJECT_ID":"2021-031Y","CENTER_NAME":"EARTH","REF_FRAME":"TEME","TIME_SYSTEM":"UTC","MEAN_ELEMENT_THEORY":"SGP4","EPOCH":"2021-05-01T04:00:00.999936","MEAN_MOTION":"15.42271469","ECCENTRICITY":"0.00084890","INCLINATION":"87.3986","RA_OF_ASC_NODE":"311.3091","ARG_OF_PERICENTER":"236.3792","MEAN_ANOMALY":"77.6119","EPHEMERIS_TYPE":"0","CLASSIFICATION_TYPE":"U","NORAD_CAT_ID":"48232","ELEMENT_SET_NO":"999","REV_AT_EPOCH":"79","BSTAR":"-0.00125760000000","MEAN_MOTION_DOT":"-0.00053593","MEAN_MOTION_DDOT":"0.0000000000000","SEMIMAJOR_AXIS":"6817.544","PERIOD":"93.369","APOAPSIS":"445.197","PERIAPSIS":"433.622","OBJECT_TYPE":"PAYLOAD","RCS_SIZE":null,"COUNTRY_CODE":"UK","LAUNCH_DATE":"2021-04-25","SITE":"VOSTO","DECAY_DATE":null,"FILE":"3028355","GP_ID":"176423146","TLE_LINE0":"0 ONEWEB-0220","TLE_LINE1":"1 48232U 21031Y   21121.16667824 -.00053593  00000-0 -12576-2 0  9993","TLE_LINE2":"2 48232  87.3986 311.3091 0008489 236.3792  77.6119 15.42271469   799"},{"CCSDS_OMM_VERS":"2.0","COMMENT":"GENERATED VIA SPACE-TRACK.ORG API","CREATION_DATE":"2021-05-01T14:36:11","ORIGINATOR":"18 SPCS","OBJECT_NAME":"ONEWEB-0220","OBJECT_ID":"2021-031Y","CENTER_NAME":"EARTH","REF_FRAME":"TEME","TIME_SYSTEM":"UTC","MEAN_ELEMENT_THEORY":"SGP4","EPOCH":"2021-05-01T12:00:02.000160","MEAN_MOTION":"15.42244428","ECCENTRICITY":"0.00086430","INCLINATION":"87.3987","RA_OF_ASC_NODE":"311.1904","ARG_OF_PERICENTER":"234.7714","MEAN_ANOMALY":"128.6812","EPHEMERIS_TYPE":"0","CLASSIFICATION_TYPE":"U","NORAD_CAT_ID":"48232","ELEMENT_SET_NO":"999","REV_AT_EPOCH":"85","BSTAR":"0.00066097000000","MEAN_MOTION_DOT":"0.00028512","MEAN_MOTION_DDOT":"0.0000000000000","SEMIMAJOR_AXIS":"6817.624","PERIOD":"93.370","APOAPSIS":"445.381","PERIAPSIS":"433.596","OBJECT_TYPE":"PAYLOAD","RCS_SIZE":null,"COUNTRY_CODE":"UK","LAUNCH_DATE":"2021-04-25","SITE":"VOSTO","DECAY_DATE":null,"FILE":"3028539","GP_ID":"176426997","TLE_LINE0":"0 ONEWEB-0220","TLE_LINE1":"1 48232U 21031Y   21121.50002315  .00028512  00000-0  66097-3 0  9998","TLE_LINE2":"2 48232  87.3987 311.1904 0008643 234.7714 128.6812 15.42244428   858"},{"CCSDS_OMM_VERS":"2.0","COMMENT":"GENERATED VIA SPACE-TRACK.ORG API","CREATION_DATE":"2021-05-01T17:18:35","ORIGINATOR":"18 SPCS","OBJECT_NAME":"ONEWEB-0220","OBJECT_ID":"2021-031Y","CENTER_NAME":"EARTH","REF_FRAME":"TEME","TIME_SYSTEM":"UTC","MEAN_ELEMENT_THEORY":"SGP4","EPOCH":"2021-05-01T14:00:01.000224","MEAN_MOTION":"15.42276156","ECCENTRICITY":"0.00086840","INCLINATION":"87.3986","RA_OF_ASC_NODE":"311.1601","ARG_OF_PERICENTER":"234.5665","MEAN_ANOMALY":"231.1633","EPHEMERIS_TYPE":"0","CLASSIFICATION_TYPE":"U","NORAD_CAT_ID":"48232","ELEMENT_SET_NO":"999","REV_AT_EPOCH":"205","BSTAR":"-0.00084682000000","MEAN_MOTION_DOT":"-0.00036160","MEAN_MOTION_DDOT":"0.0000000000000","SEMIMAJOR_AXIS":"6817.530","PERIOD":"93.368","APOAPSIS":"445.316","PERIAPSIS":"433.475","OBJECT_TYPE":"PAYLOAD","RCS_SIZE":null,"COUNTRY_CODE":"UK","LAUNCH_DATE":"2021-04-25","SITE":"VOSTO","DECAY_DATE":null,"FILE":"3028700","GP_ID":"176453945","TLE_LINE0":"0 ONEWEB-0220","TLE_LINE1":"1 48232U 21031Y   21121.58334491 -.00036160  00000-0 -84682-3 0  9999","TLE_LINE2":"2 48232  87.3986 311.1601 0008684 234.5665 231.1633 15.42276156  2057"},{"CCSDS_OMM_VERS":"2.0","COMMENT":"GENERATED VIA SPACE-TRACK.ORG API","CREATION_DATE":"2021-05-02T02:08:29","ORIGINATOR":"18 SPCS","OBJECT_NAME":"ONEWEB-0220","OBJECT_ID":"2021-031Y","CENTER_NAME":"EARTH","REF_FRAME":"TEME","TIME_SYSTEM":"UTC","MEAN_ELEMENT_THEORY":"SGP4","EPOCH":"2021-05-01T22:00:03.000096","MEAN_MOTION":"15.42219903","ECCENTRICITY":"0.00087050","INCLINATION":"87.3987","RA_OF_ASC_NODE":"311.0400","ARG_OF_PERICENTER":"233.2129","MEAN_ANOMALY":"282.0675","EPHEMERIS_TYPE":"0","CLASSIFICATION_TYPE":"U","NORAD_CAT_ID":"48232","ELEMENT_SET_NO":"999","REV_AT_EPOCH":"210","BSTAR":"0.00178860000000","MEAN_MOTION_DOT":"0.00077494","MEAN_MOTION_DDOT":"0.0000000000000","SEMIMAJOR_AXIS":"6817.696","PERIOD":"93.372","APOAPSIS":"445.496","PERIAPSIS":"433.626","OBJECT_TYPE":"PAYLOAD","RCS_SIZE":"MEDIUM","COUNTRY_CODE":"UK","LAUNCH_DATE":"2021-04-25","SITE":"VOSTO","DECAY_DATE":null,"FILE":"3028921","GP_ID":"176481614","TLE_LINE0":"0 ONEWEB-0220","TLE_LINE1":"1 48232U 21031Y   21121.91670139  .00077494  00000-0  17886-2 0  9992","TLE_LINE2":"2 48232  87.3987 311.0400 0008705 233.2129 282.0675 15.42219903  2103"}]